start=new Date('2022-12-08T00:00:00.000Z').valueOf();
sats=[{"INCLINATION":"53.2169","OBJECT_TYPE":"PAYLOAD","MEAN_ANOMALY":"240.8943","ARG_OF_PERICENTER":"73.6090","SITE":"AFWTR","RCS_SIZE":"LARGE","OBJECT_ID":"2022-125AT","MEAN_MOTION_DDOT":"0.0000000000000","ECCENTRICITY":"0.00013000","CLASSIFICATION_TYPE":"U","TLE_LINE1":"1 54005U 22125AT  22341.91667824 -.01199064  00000-0 -69446-1 0  9993","LAUNCH_DATE":"2022-10-05","CENTER_NAME":"EARTH","REF_FRAME":"TEME","EPOCH":"2022-12-07T22:00:00.999936","MEAN_MOTION_DOT":"-0.01199064","MEAN_ELEMENT_THEORY":"SGP4","REV_AT_EPOCH":"130","PERIAPSIS":"520.546","BSTAR":"-0.06944600000000","EPHEMERIS_TYPE":"0","GP_ID":"219743344","PERIOD":"95.059","TLE_LINE2":"2 54005  53.2169 146.0084 0001300  73.6090 240.8943 15.14847589  1300","ELEMENT_SET_NO":"999","RA_OF_ASC_NODE":"146.0084","FILE":"3684212","SEMIMAJOR_AXIS":"6899.578","DECAY_DATE":null,"OBJECT_NAME":"STARLINK-5135","MEAN_MOTION":"15.14847589","NORAD_CAT_ID":"54005","APOAPSIS":"522.340","TIME_SYSTEM":"UTC","COUNTRY_CODE":"US"},{"OBJECT_TYPE":"PAYLOAD","ARG_OF_PERICENTER":"119.7363","MEAN_ANOMALY":"263.6372","INCLINATION":"53.2175","TLE_LINE1":"1 54006U 22125AU  22341.91667824  .01002548  00000-0  49884-1 0  9996","CENTER_NAME":"EARTH","LAUNCH_DATE":"2022-10-05","REF_FRAME":"TEME","SITE":"AFWTR","RCS_SIZE":"LARGE","MEAN_MOTION_DDOT":"0.0000000000000","OBJECT_ID":"2022-125AU","CLASSIFICATION_TYPE":"U","ECCENTRICITY":"0.00006520","GP_ID":"219744157","EPHEMERIS_TYPE":"0","PERIOD":"95.074","MEAN_MOTION_DOT":"0.01002548","EPOCH":"2022-12-07T22:00:00.999936","MEAN_ELEMENT_THEORY":"SGP4","PERIAPSIS":"521.717","REV_AT_EPOCH":"130","BSTAR":"0.04988400000000","MEAN_MOTION":"15.14609265","APOAPSIS":"522.617","NORAD_CAT_ID":"54006","COUNTRY_CODE":"US","TIME_SYSTEM":"UTC","ELEMENT_SET_NO":"999","RA_OF_ASC_NODE":"145.8704","TLE_LINE2":"2 54006  53.2175 145.8704 0000652 119.7363 263.6372 15.14609265  1304","FILE":"3684212","SEMIMAJOR_AXIS":"6900.302","DECAY_DATE":null,"OBJECT_NAME":"STARLINK-5096"},{"OBJECT_TYPE":"PAYLOAD","ARG_OF_PERICENTER":"63.1800","MEAN_ANOMALY":"285.6467","INCLINATION":"53.2168","CENTER_NAME":"EARTH","LAUNCH_DATE":"2022-10-05","REF_FRAME":"TEME","TLE_LINE1":"1 54007U 22125AV  22341.91667824 -.01188681  00000-0 -67605-1 0  9993","MEAN_MOTION_DDOT":"0.0000000000000","OBJECT_ID":"2022-125AV","CLASSIFICATION_TYPE":"U","ECCENTRICITY":"0.00012980","SITE":"AFWTR","RCS_SIZE":"LARGE","PERIOD":"95.021","GP_ID":"219743957","EPHEMERIS_TYPE":"0","PERIAPSIS":"518.694","REV_AT_EPOCH":"130","BSTAR":"-0.06760500000000","MEAN_MOTION_DOT":"-0.01188681","EPOCH":"2022-12-07T22:00:00.999936","MEAN_ELEMENT_THEORY":"SGP4","COUNTRY_CODE":"US","TIME_SYSTEM":"UTC","MEAN_MOTION":"15.15458273","APOAPSIS":"520.485","NORAD_CAT_ID":"54007","SEMIMAJOR_AXIS":"6897.725","DECAY_DATE":null,"OBJECT_NAME":"STARLINK-5132","RA_OF_ASC_NODE":"145.9427","ELEMENT_SET_NO":"999","TLE_LINE2":"2 54007  53.2168 145.9427 0001298  63.1800 285.6467 15.15458273  1306","FILE":"3684212"},{"ARG_OF_PERICENTER":"80.1251","MEAN_ANOMALY":"49.5116","OBJECT_TYPE":"PAYLOAD","INCLINATION":"53.2161","REF_FRAME":"TEME","CENTER_NAME":"EARTH","LAUNCH_DATE":"2022-10-05","TLE_LINE1":"1 54008U 22125AW  22341.91667824 -.00428821  00000-0 -75505-2 0  9995","CLASSIFICATION_TYPE":"U","ECCENTRICITY":"0.00014610","MEAN_MOTION_DDOT":"0.0000000000000","OBJECT_ID":"2022-125AW","RCS_SIZE":"LARGE","SITE":"AFWTR","PERIOD":"92.820","GP_ID":"219744355","EPHEMERIS_TYPE":"0","BSTAR":"-0.00755050000000","PERIAPSIS":"411.666","REV_AT_EPOCH":"130","MEAN_ELEMENT_THEORY":"SGP4","MEAN_MOTION_DOT":"-0.00428821","EPOCH":"2022-12-07T22:00:00.999936","COUNTRY_CODE":"US","TIME_SYSTEM":"UTC","APOAPSIS":"413.650","NORAD_CAT_ID":"54008","MEAN_MOTION":"15.51393801","OBJECT_NAME":"STARLINK-5145","DECAY_DATE":null,"SEMIMAJOR_AXIS":"6790.793","FILE":"3684212","RA_OF_ASC_NODE":"140.6176","ELEMENT_SET_NO":"999","TLE_LINE2":"2 54008  53.2161 140.6176 0001461  80.1251  49.5116 15.51393801  1307"},{"TLE_LINE2":"2 54009  53.2169 145.9093 0001303  66.6306 299.2026 15.15651710  1307","ELEMENT_SET_NO":"999","RA_OF_ASC_NODE":"145.9093","FILE":"3684212","SEMIMAJOR_AXIS":"6897.138","OBJECT_NAME":"STARLINK-5099","DECAY_DATE":null,"MEAN_MOTION":"15.15651710","NORAD_CAT_ID":"54009","APOAPSIS":"519.901","TIME_SYSTEM":"UTC","COUNTRY_CODE":"US","EPOCH":"2022-12-07T22:00:00.999936","MEAN_MOTION_DOT":"-0.01017706","MEAN_ELEMENT_THEORY":"SGP4","REV_AT_EPOCH":"130","PERIAPSIS":"518.104","BSTAR":"-0.05759800000000","EPHEMERIS_TYPE":"0","GP_ID":"219743757","PERIOD":"95.009","SITE":"AFWTR","RCS_SIZE":"LARGE","OBJECT_ID":"2022-125AX","MEAN_MOTION_DDOT":"0.0000000000000","ECCENTRICITY":"0.00013030","CLASSIFICATION_TYPE":"U","TLE_LINE1":"1 54009U 22125AX  22341.91667824 -.01017706  00000-0 -57598-1 0  9994","LAUNCH_DATE":"2022-10-05","CENTER_NAME":"EARTH","REF_FRAME":"TEME","INCLINATION":"53.2169","OBJECT_TYPE":"PAYLOAD","MEAN_ANOMALY":"299.2026","ARG_OF_PERICENTER":"66.6306"},{"SITE":"AFWTR","RCS_SIZE":"LARGE","MEAN_MOTION_DDOT":"0.0000000000000","OBJECT_ID":"2022-125AY","ECCENTRICITY":"0.00015120","CLASSIFICATION_TYPE":"U","TLE_LINE1":"1 54010U 22125AY  22341.91667824 -.00100084  00000-0 -16980-2 0  9998","LAUNCH_DATE":"2022-10-05","CENTER_NAME":"EARTH","REF_FRAME":"TEME","INCLINATION":"53.2176","OBJECT_TYPE":"PAYLOAD","MEAN_ANOMALY":"42.0202","ARG_OF_PERICENTER":"90.2478","TLE_LINE2":"2 54010  53.2176 140.6190 0001512  90.2478  42.0202 15.51177364  1300","RA_OF_ASC_NODE":"140.6190","ELEMENT_SET_NO":"999","FILE":"3684212","SEMIMAJOR_AXIS":"6791.424","DECAY_DATE":null,"OBJECT_NAME":"STARLINK-5127","MEAN_MOTION":"15.51177364","NORAD_CAT_ID":"54010","APOAPSIS":"414.316","TIME_SYSTEM":"UTC","COUNTRY_CODE":"US","EPOCH":"2022-12-07T22:00:00.999936","MEAN_MOTION_DOT":"-0.00100084","MEAN_ELEMENT_THEORY":"SGP4","REV_AT_EPOCH":"130","PERIAPSIS":"412.263","BSTAR":"-0.00169800000000","EPHEMERIS_TYPE":"0","GP_ID":"219744545","PERIOD":"92.833"},{"ELEMENT_SET_NO":"999","RA_OF_ASC_NODE":"140.6718","TLE_LINE2":"2 54011  53.2162 140.6718 0002024  23.8743  76.2744 15.53846729  1308","FILE":"3684212","SEMIMAJOR_AXIS":"6783.644","DECAY_DATE":null,"OBJECT_NAME":"STARLINK-5124","MEAN_MOTION":"15.53846729","APOAPSIS":"406.882","NORAD_CAT_ID":"54011","COUNTRY_CODE":"US","TIME_SYSTEM":"UTC","MEAN_MOTION_DOT":"0.00080205","EPOCH":"2022-12-07T22:00:00.999936","MEAN_ELEMENT_THEORY":"SGP4","PERIAPSIS":"404.136","REV_AT_EPOCH":"130","BSTAR":"0.00122070000000","GP_ID":"219743545","EPHEMERIS_TYPE":"0","PERIOD":"92.673","SITE":"AFWTR","RCS_SIZE":"LARGE","OBJECT_ID":"2022-125AZ","MEAN_MOTION_DDOT":"0.0000000000000","CLASSIFICATION_TYPE":"U","ECCENTRICITY":"0.00020240","TLE_LINE1":"1 54011U 22125AZ  22341.91667824  .00080205  00000-0  12207-2 0  9997","CENTER_NAME":"EARTH","LAUNCH_DATE":"2022-10-05","REF_FRAME":"TEME","INCLINATION":"53.2162","OBJECT_TYPE":"PAYLOAD","ARG_OF_PERICENTER":"23.8743","MEAN_ANOMALY":"76.2744"},{"CENTER_NAME":"EARTH","LAUNCH_DATE":"2022-10-05","REF_FRAME":"TEME","TLE_LINE1":"1 54012U 22125BA  22341.91667824 -.00971641  00000-0 -15769-1 0  9998","OBJECT_ID":"2022-125BA","MEAN_MOTION_DDOT":"0.0000000000000","CLASSIFICATION_TYPE":"U","ECCENTRICITY":"0.00017730","SITE":"AFWTR","RCS_SIZE":"LARGE","OBJECT_TYPE":"PAYLOAD","ARG_OF_PERICENTER":"36.5178","MEAN_ANOMALY":"67.1268","INCLINATION":"53.2167","COUNTRY_CODE":"US","TIME_SYSTEM":"UTC","MEAN_MOTION":"15.54586183","APOAPSIS":"404.560","NORAD_CAT_ID":"54012","SEMIMAJOR_AXIS":"6781.493","DECAY_DATE":null,"OBJECT_NAME":"STARLINK-5126","ELEMENT_SET_NO":"999","RA_OF_ASC_NODE":"140.6663","TLE_LINE2":"2 54012  53.2167 140.6663 0001773  36.5178  67.1268 15.54586183  1302","FILE":"3684212","PERIOD":"92.629","GP_ID":"219744744","EPHEMERIS_TYPE":"0","PERIAPSIS":"402.155","REV_AT_EPOCH":"130","BSTAR":"-0.01576900000000","MEAN_MOTION_DOT":"-0.00971641","EPOCH":"2022-12-07T22:00:00.999936","MEAN_ELEMENT_THEORY":"SGP4"},{"CLASSIFICATION_TYPE":"U","ECCENTRICITY":"0.00017020","OBJECT_ID":"2022-125BB","MEAN_MOTION_DDOT":"0.0000000000000","RCS_SIZE":"LARGE","SITE":"AFWTR","REF_FRAME":"TEME","CENTER_NAME":"EARTH","LAUNCH_DATE":"2022-10-05","TLE_LINE1":"1 54013U 22125BB  22341.91667824 -.00974484  00000-0 -15837-1 0  9993","INCLINATION":"53.2166","ARG_OF_PERICENTER":"28.9457","MEAN_ANOMALY":"72.4150","OBJECT_TYPE":"PAYLOAD","DECAY_DATE":null,"OBJECT_NAME":"STARLINK-5098","SEMIMAJOR_AXIS":"6781.579","FILE":"3684212","ELEMENT_SET_NO":"999","RA_OF_ASC_NODE":"140.6707","TLE_LINE2":"2 54013  53.2166 140.6707 0001702  28.9457  72.4150 15.54556376  1308","COUNTRY_CODE":"US","TIME_SYSTEM":"UTC","APOAPSIS":"404.599","NORAD_CAT_ID":"54013","MEAN_MOTION":"15.54556376","BSTAR":"-0.01583700000000","PERIAPSIS":"402.290","REV_AT_EPOCH":"130","MEAN_ELEMENT_THEORY":"SGP4","MEAN_MOTION_DOT":"-0.00974484","EPOCH":"2022-12-07T22:00:00.999936","PERIOD":"92.631","GP_ID":"219743345","EPHEMERIS_TYPE":"0"},{"PERIOD":"92.633","EPHEMERIS_TYPE":"0","GP_ID":"219744158","BSTAR":"-0.01477900000000","REV_AT_EPOCH":"130","PERIAPSIS":"402.291","MEAN_ELEMENT_THEORY":"SGP4","EPOCH":"2022-12-07T22:00:00.999936","MEAN_MOTION_DOT":"-0.00901286","TIME_SYSTEM":"UTC","COUNTRY_CODE":"US","NORAD_CAT_ID":"54014","APOAPSIS":"404.763","MEAN_MOTION":"15.54527994","OBJECT_NAME":"STARLINK-5116","DECAY_DATE":null,"SEMIMAJOR_AXIS":"6781.662","FILE":"3684212","TLE_LINE2":"2 54014  53.2167 140.6686 0001823  33.8043  68.7199 15.54527994  1301","ELEMENT_SET_NO":"999","RA_OF_ASC_NODE":"140.6686","MEAN_ANOMALY":"68.7199","ARG_OF_PERICENTER":"33.8043","OBJECT_TYPE":"PAYLOAD","INCLINATION":"53.2167","REF_FRAME":"TEME","LAUNCH_DATE":"2022-10-05","CENTER_NAME":"EARTH","TLE_LINE1":"1 54014U 22125BC  22341.91667824 -.00901286  00000-0 -14779-1 0  9998","ECCENTRICITY":"0.00018230","CLASSIFICATION_TYPE":"U","OBJECT_ID":"2022-125BC","MEAN_MOTION_DDOT":"0.0000000000000","RCS_SIZE":"LARGE","SITE":"AFWTR"}];
